[{"OBJECT_NAME":"STARLINK-30236","OBJECT_ID":"2023-096L","EPOCH":"2026-03-09T22:00:01.999584","MEAN_MOTION":15.1572476,"ECCENTRICITY":7.262e-5,"INCLINATION":42.9994,"RA_OF_ASC_NODE":221.2661,"ARG_OF_PERICENTER":291.1862,"MEAN_ANOMALY":273.7495,"EPHEMERIS_TYPE":0,"CLASSIFICATION_TYPE":"U","NORAD_CAT_ID":57300,"ELEMENT_SET_NO":999,"REV_AT_EPOCH":572,"BSTAR":0.0063877157,"MEAN_MOTION_DOT":0.00125921,"MEAN_MOTION_DDOT":0},{"OBJECT_NAME":"TIANYI C","OBJECT_ID":"2025-103C","EPOCH":"2026-03-09T22:37:19.466688","MEAN_MOTION":15.19353753,"ECCENTRICITY":0.00043402,"INCLINATION":97.3825,"RA_OF_ASC_NODE":142.8102,"ARG_OF_PERICENTER":135.1968,"MEAN_ANOMALY":224.9618,"EPHEMERIS_TYPE":0,"CLASSIFICATION_TYPE":"U","NORAD_CAT_ID":64050,"ELEMENT_SET_NO":999,"REV_AT_EPOCH":4499,"BSTAR":0.00019408106,"MEAN_MOTION_DOT":4.036e-5,"MEAN_MOTION_DDOT":0}]
